CCSDS_OMM_VERS = 2.0
CREATION_DATE  = 
ORIGINATOR     = 

OBJECT_NAME    = STARLINK-36202
OBJECT_ID      = 2025-298V
CENTER_NAME    = EARTH
REF_FRAME      = TEME
TIME_SYSTEM    = UTC
MEAN_ELEMENT_THEORY = SGP/SGP4

EPOCH          = 2025-12-24T04:00:01.998720
MEAN_MOTION    = 15.84730630
ECCENTRICITY   = .0003818
INCLINATION    = 69.9956
RA_OF_ASC_NODE = 217.4679
ARG_OF_PERICENTER = 274.3551
MEAN_ANOMALY   = 7.4462

EPHEMERIS_TYPE = 0
CLASSIFICATION_TYPE = U
NORAD_CAT_ID   = 67094
ELEMENT_SET_NO = 999
REV_AT_EPOCH   = 281
BSTAR          = -.85322E-2
MEAN_MOTION_DOT = -.1719107E-1
MEAN_MOTION_DDOT = 0

CCSDS_OMM_VERS = 2.0
CREATION_DATE  = 
ORIGINATOR     = 

OBJECT_NAME    = STARLINK-36227
OBJECT_ID      = 2025-298W
CENTER_NAME    = EARTH
REF_FRAME      = TEME
TIME_SYSTEM    = UTC
MEAN_ELEMENT_THEORY = SGP/SGP4

EPOCH          = 2025-12-24T04:00:01.998720
MEAN_MOTION    = 15.84730955
ECCENTRICITY   = .0003758
INCLINATION    = 69.9954
RA_OF_ASC_NODE = 217.4653
ARG_OF_PERICENTER = 272.9114
MEAN_ANOMALY   = 10.9534

EPHEMERIS_TYPE = 0
CLASSIFICATION_TYPE = U
NORAD_CAT_ID   = 67095
ELEMENT_SET_NO = 999
REV_AT_EPOCH   = 275
BSTAR          = -.85712E-2
MEAN_MOTION_DOT = -.1725844E-1
MEAN_MOTION_DDOT = 0

CCSDS_OMM_VERS = 2.0
CREATION_DATE  = 
ORIGINATOR     = 

OBJECT_NAME    = STARLINK-36228
OBJECT_ID      = 2025-298X
CENTER_NAME    = EARTH
REF_FRAME      = TEME
TIME_SYSTEM    = UTC
MEAN_ELEMENT_THEORY = SGP/SGP4

EPOCH          = 2025-12-24T04:00:01.998720
MEAN_MOTION    = 15.84733964
ECCENTRICITY   = .0003849
INCLINATION    = 69.9955
RA_OF_ASC_NODE = 217.4634
ARG_OF_PERICENTER = 272.4919
MEAN_ANOMALY   = 13.1697

EPHEMERIS_TYPE = 0
CLASSIFICATION_TYPE = U
NORAD_CAT_ID   = 67096
ELEMENT_SET_NO = 999
REV_AT_EPOCH   = 275
BSTAR          = -.8559E-2
MEAN_MOTION_DOT = -.172405E-1
MEAN_MOTION_DDOT = 0

CCSDS_OMM_VERS = 2.0
CREATION_DATE  = 
ORIGINATOR     = 

OBJECT_NAME    = STARLINK-36222
OBJECT_ID      = 2025-298Y
CENTER_NAME    = EARTH
REF_FRAME      = TEME
TIME_SYSTEM    = UTC
MEAN_ELEMENT_THEORY = SGP/SGP4

EPOCH          = 2025-12-24T04:00:01.998720
MEAN_MOTION    = 15.84732111
ECCENTRICITY   = .0003854
INCLINATION    = 69.9955
RA_OF_ASC_NODE = 217.4609
ARG_OF_PERICENTER = 273.7472
MEAN_ANOMALY   = 13.9251

EPHEMERIS_TYPE = 0
CLASSIFICATION_TYPE = U
NORAD_CAT_ID   = 67097
ELEMENT_SET_NO = 999
REV_AT_EPOCH   = 275
BSTAR          = -.85732E-2
MEAN_MOTION_DOT = -.1726397E-1
MEAN_MOTION_DDOT = 0

CCSDS_OMM_VERS = 2.0
CREATION_DATE  = 
ORIGINATOR     = 

OBJECT_NAME    = STARLINK-36205
OBJECT_ID      = 2025-298Z
CENTER_NAME    = EARTH
REF_FRAME      = TEME
TIME_SYSTEM    = UTC
MEAN_ELEMENT_THEORY = SGP/SGP4

EPOCH          = 2025-12-24T04:00:01.998720
MEAN_MOTION    = 15.84719518
ECCENTRICITY   = .0003794
INCLINATION    = 69.9955
RA_OF_ASC_NODE = 217.4584
ARG_OF_PERICENTER = 273.5454
MEAN_ANOMALY   = 16.3178

EPHEMERIS_TYPE = 0
CLASSIFICATION_TYPE = U
NORAD_CAT_ID   = 67098
ELEMENT_SET_NO = 999
REV_AT_EPOCH   = 281
BSTAR          = -.85479E-2
MEAN_MOTION_DOT = -.1721011E-1
MEAN_MOTION_DDOT = 0

CCSDS_OMM_VERS = 2.0
CREATION_DATE  = 
ORIGINATOR     = 

OBJECT_NAME    = STARLINK-36193
OBJECT_ID      = 2025-298AA
CENTER_NAME    = EARTH
REF_FRAME      = TEME
TIME_SYSTEM    = UTC
MEAN_ELEMENT_THEORY = SGP/SGP4

EPOCH          = 2025-12-24T04:00:01.998720
MEAN_MOTION    = 15.84633602
ECCENTRICITY   = .0003795
INCLINATION    = 69.9954
RA_OF_ASC_NODE = 217.4542
ARG_OF_PERICENTER = 270.4444
MEAN_ANOMALY   = 22.9215

EPHEMERIS_TYPE = 0
CLASSIFICATION_TYPE = U
NORAD_CAT_ID   = 67099
ELEMENT_SET_NO = 999
REV_AT_EPOCH   = 275
BSTAR          = -.12042E-1
MEAN_MOTION_DOT = -.2409993E-1
MEAN_MOTION_DDOT = 0

CCSDS_OMM_VERS = 2.0
CREATION_DATE  = 
ORIGINATOR     = 

OBJECT_NAME    = STARLINK-36215
OBJECT_ID      = 2025-298AB
CENTER_NAME    = EARTH
REF_FRAME      = TEME
TIME_SYSTEM    = UTC
MEAN_ELEMENT_THEORY = SGP/SGP4

EPOCH          = 2025-12-24T04:00:01.998720
MEAN_MOTION    = 15.84731506
ECCENTRICITY   = .0003902
INCLINATION    = 69.9953
RA_OF_ASC_NODE = 217.4520
ARG_OF_PERICENTER = 272.0008
MEAN_ANOMALY   = 23.2880

EPHEMERIS_TYPE = 0
CLASSIFICATION_TYPE = U
NORAD_CAT_ID   = 67100
ELEMENT_SET_NO = 999
REV_AT_EPOCH   = 281
BSTAR          = -.85606E-2
MEAN_MOTION_DOT = -.1724221E-1
MEAN_MOTION_DDOT = 0

CCSDS_OMM_VERS = 2.0
CREATION_DATE  = 
ORIGINATOR     = 

OBJECT_NAME    = STARLINK-36200
OBJECT_ID      = 2025-298AC
CENTER_NAME    = EARTH
REF_FRAME      = TEME
TIME_SYSTEM    = UTC
MEAN_ELEMENT_THEORY = SGP/SGP4

EPOCH          = 2025-12-24T04:00:01.998720
MEAN_MOTION    = 15.84729265
ECCENTRICITY   = .0003808
INCLINATION    = 69.9957
RA_OF_ASC_NODE = 217.4567
ARG_OF_PERICENTER = 269.6507
MEAN_ANOMALY   = 21.9575

EPHEMERIS_TYPE = 0
CLASSIFICATION_TYPE = U
NORAD_CAT_ID   = 67101
ELEMENT_SET_NO = 999
REV_AT_EPOCH   = 281
BSTAR          = -.85831E-2
MEAN_MOTION_DOT = -.172785E-1
MEAN_MOTION_DDOT = 0

CCSDS_OMM_VERS = 2.0
CREATION_DATE  = 
ORIGINATOR     = 

OBJECT_NAME    = STARLINK-36255
OBJECT_ID      = 2025-299A
CENTER_NAME    = EARTH
REF_FRAME      = TEME
TIME_SYSTEM    = UTC
MEAN_ELEMENT_THEORY = SGP/SGP4

EPOCH          = 2025-12-24T04:00:01.998720
MEAN_MOTION    = 15.87975362
ECCENTRICITY   = .0001499
INCLINATION    = 42.9974
RA_OF_ASC_NODE = 246.6805
ARG_OF_PERICENTER = 274.5815
MEAN_ANOMALY   = 226.2649

EPHEMERIS_TYPE = 0
CLASSIFICATION_TYPE = U
NORAD_CAT_ID   = 67102
ELEMENT_SET_NO = 999
REV_AT_EPOCH   = 264
BSTAR          = -.70566E-2
MEAN_MOTION_DOT = -.1720076E-1
MEAN_MOTION_DDOT = 0

CCSDS_OMM_VERS = 2.0
CREATION_DATE  = 
ORIGINATOR     = 

OBJECT_NAME    = STARLINK-36256
OBJECT_ID      = 2025-299B
CENTER_NAME    = EARTH
REF_FRAME      = TEME
TIME_SYSTEM    = UTC
MEAN_ELEMENT_THEORY = SGP/SGP4

EPOCH          = 2025-12-24T04:00:01.998720
MEAN_MOTION    = 15.87995809
ECCENTRICITY   = .0001587
INCLINATION    = 42.9974
RA_OF_ASC_NODE = 246.6774
ARG_OF_PERICENTER = 278.4185
MEAN_ANOMALY   = 223.6602

EPHEMERIS_TYPE = 0
CLASSIFICATION_TYPE = U
NORAD_CAT_ID   = 67103
ELEMENT_SET_NO = 999
REV_AT_EPOCH   = 264
BSTAR          = -.70494E-2
MEAN_MOTION_DOT = -.1720191E-1
MEAN_MOTION_DDOT = 0

CCSDS_OMM_VERS = 2.0
CREATION_DATE  = 
ORIGINATOR     = 

OBJECT_NAME    = STARLINK-36258
OBJECT_ID      = 2025-299C
CENTER_NAME    = EARTH
REF_FRAME      = TEME
TIME_SYSTEM    = UTC
MEAN_ELEMENT_THEORY = SGP/SGP4

EPOCH          = 2025-12-24T04:00:01.998720
MEAN_MOTION    = 15.88020892
ECCENTRICITY   = .0001606
INCLINATION    = 42.9975
RA_OF_ASC_NODE = 246.6738
ARG_OF_PERICENTER = 277.3304
MEAN_ANOMALY   = 226.1706

EPHEMERIS_TYPE = 0
CLASSIFICATION_TYPE = U
NORAD_CAT_ID   = 67104
ELEMENT_SET_NO = 999
REV_AT_EPOCH   = 264
BSTAR          = -.71222E-2
MEAN_MOTION_DOT = -.1737406E-1
MEAN_MOTION_DDOT = 0

CCSDS_OMM_VERS = 2.0
CREATION_DATE  = 
ORIGINATOR     = 

OBJECT_NAME    = STARLINK-36261
OBJECT_ID      = 2025-299D
CENTER_NAME    = EARTH
REF_FRAME      = TEME
TIME_SYSTEM    = UTC
MEAN_ELEMENT_THEORY = SGP/SGP4

EPOCH          = 2025-12-24T04:00:01.998720
MEAN_MOTION    = 15.88027567
ECCENTRICITY   = .0001571
INCLINATION    = 42.9974
RA_OF_ASC_NODE = 246.6709
ARG_OF_PERICENTER = 272.6003
MEAN_ANOMALY   = 232.0598

EPHEMERIS_TYPE = 0
CLASSIFICATION_TYPE = U
NORAD_CAT_ID   = 67105
ELEMENT_SET_NO = 999
REV_AT_EPOCH   = 264
BSTAR          = -.70144E-2
MEAN_MOTION_DOT = -.1715172E-1
MEAN_MOTION_DDOT = 0

CCSDS_OMM_VERS = 2.0
CREATION_DATE  = 
ORIGINATOR     = 

OBJECT_NAME    = STARLINK-36259
OBJECT_ID      = 2025-299E
CENTER_NAME    = EARTH
REF_FRAME      = TEME
TIME_SYSTEM    = UTC
MEAN_ELEMENT_THEORY = SGP/SGP4

EPOCH          = 2025-12-24T04:00:01.998720
MEAN_MOTION    = 15.88047528
ECCENTRICITY   = .0001588
INCLINATION    = 42.9975
RA_OF_ASC_NODE = 246.6629
ARG_OF_PERICENTER = 275.7727
MEAN_ANOMALY   = 232.0981

EPHEMERIS_TYPE = 0
CLASSIFICATION_TYPE = U
NORAD_CAT_ID   = 67106
ELEMENT_SET_NO = 999
REV_AT_EPOCH   = 264
BSTAR          = -.70266E-2
MEAN_MOTION_DOT = -.1719261E-1
MEAN_MOTION_DDOT = 0

CCSDS_OMM_VERS = 2.0
CREATION_DATE  = 
ORIGINATOR     = 

OBJECT_NAME    = STARLINK-36196
OBJECT_ID      = 2025-299F
CENTER_NAME    = EARTH
REF_FRAME      = TEME
TIME_SYSTEM    = UTC
MEAN_ELEMENT_THEORY = SGP/SGP4

EPOCH          = 2025-12-24T04:00:01.998720
MEAN_MOTION    = 15.88046310
ECCENTRICITY   = .0001583
INCLINATION    = 42.9976
RA_OF_ASC_NODE = 246.6673
ARG_OF_PERICENTER = 274.0152
MEAN_ANOMALY   = 232.1556

EPHEMERIS_TYPE = 0
CLASSIFICATION_TYPE = U
NORAD_CAT_ID   = 67107
ELEMENT_SET_NO = 999
REV_AT_EPOCH   = 264
BSTAR          = -.70548E-2
MEAN_MOTION_DOT = -.1725118E-1
MEAN_MOTION_DDOT = 0

CCSDS_OMM_VERS = 2.0
CREATION_DATE  = 
ORIGINATOR     = 

OBJECT_NAME    = STARLINK-36208
OBJECT_ID      = 2025-299G
CENTER_NAME    = EARTH
REF_FRAME      = TEME
TIME_SYSTEM    = UTC
MEAN_ELEMENT_THEORY = SGP/SGP4

EPOCH          = 2025-12-24T04:00:01.998720
MEAN_MOTION    = 15.88055048
ECCENTRICITY   = .0001662
INCLINATION    = 42.9976
RA_OF_ASC_NODE = 246.6586
ARG_OF_PERICENTER = 274.7898
MEAN_ANOMALY   = 234.7647

EPHEMERIS_TYPE = 0
CLASSIFICATION_TYPE = U
NORAD_CAT_ID   = 67108
ELEMENT_SET_NO = 999
REV_AT_EPOCH   = 264
BSTAR          = -.70228E-2
MEAN_MOTION_DOT = -.1719088E-1
MEAN_MOTION_DDOT = 0

